ORBCOMM FM06            
1 25118U 97084G   26197.46385006  .00000427  00000+0  15401-3 0  9998
2 25118  45.0136 271.7670 0001591 235.8178 139.2905 14.47628571498632
ORBCOMM FM04            
1 25159U 98007C   26198.56276674  .00000320  00000+0  15509-3 0  9992
2 25159 107.9633 231.9393 0041982 272.9135  86.7201 14.35786845480957
ORBCOMM FM19            
1 25415U 98046C   26198.14857184  .00000390  00000+0  16921-3 0  9991
2 25415  44.9936 101.1368 0003246  75.8966  72.2293 14.39543462461096
ORBCOMM FM20            
1 25416U 98046D   26198.16272578  .00000280  00000+0  13814-3 0  9998
2 25416  44.9937 109.3238 0001236  11.1792 348.9084 14.38101952461107
ORBCOMM FM27            
1 25481U 98053G   26198.38401653  .00000285  00000+0  13668-3 0  9992
2 25481  45.0032 191.9219 0002332 299.0542  61.0073 14.39186914454588
ORBCOMM FM32            
1 25982U 99065C   26198.18176597  .00000252  00000+0  13137-3 0  9991
2 25982  45.0159  31.2590 0005872 201.5587 158.5014 14.37169604391404
ORBCOMM FM109           
1 40086U 14040A   26198.30099115  .00000063  00000+0  49507-4 0  9998
2 40086  47.0036 309.1089 0001396 329.9966  30.0840 14.58872972638749
ORBCOMM FM110           
1 41182U 15081D   26198.44269392  .00000149  00000+0  67798-4 0  9990
2 41182  47.0002 218.3818 0003680 231.5677 128.4879 14.58919619562049
ORBCOMM FM118           
1 41183U 15081E   26198.47714493  .00000013  00000+0  38909-4 0  9993
2 41183  47.0023 218.5580 0003005 196.4338 163.6450 14.58904729562159
ORBCOMM FM112           
1 41184U 15081F   26198.20716236  .00000247  00000+0  88473-4 0  9992
2 41184  46.9984 128.2849 0003574 337.1225  22.9501 14.58940112563330
ORBCOMM FM113           
1 41185U 15081G   26198.18483880  .00000107  00000+0  58832-4 0  9997
2 41185  47.0001 128.7827 0002114 329.1270  30.9491 14.58883148563314
ORBCOMM FM108           
1 41187U 15081J   26198.62618776  .00000212  00000+0  81051-4 0  9998
2 41187  47.0057  38.2772 0002478 330.9581  29.1166 14.58912397564521
ORBCOMM FM117           
1 41188U 15081K   26198.59194349  .00000198  00000+0  78160-4 0  9990
2 41188  47.0020  37.0656 0002909 339.1196  20.9571 14.58899370564560
ORBCOMM FM116           
1 41189U 15081L   26198.50358276  .00000126  00000+0  62897-4 0  9994
2 41189  47.0016 127.2726 0001617 235.7302 124.3431 14.58907713563363
